{
    "links": {
        "self": "http://www.neowsapp.com/rest/v1/neo/3273786?api_key=iIulBulltgU6a56xZRHN4H3l9WmuAYTsLGpBGhQ2"
    },
    "id": "3273786",
    "neo_reference_id": "3273786",
    "name": "(2005 EN70)",
    "designation": "2005 EN70",
    "nasa_jpl_url": "http://ssd.jpl.nasa.gov/sbdb.cgi?sstr=3273786",
    "absolute_magnitude_h": 20.6,
    "estimated_diameter": {
        "kilometers": {
            "estimated_diameter_min": 0.2016299194,
            "estimated_diameter_max": 0.4508582062
        },
        "meters": {
            "estimated_diameter_min": 201.6299194428,
            "estimated_diameter_max": 450.8582061718
        },
        "miles": {
            "estimated_diameter_min": 0.1252869847,
            "estimated_diameter_max": 0.2801502144
        },
        "feet": {
            "estimated_diameter_min": 661.5155049046,
            "estimated_diameter_max": 1479.1936371367
        }
    },
    "is_potentially_hazardous_asteroid": false,
    "close_approach_data": [
        {
            "close_approach_date": "2005-03-12",
            "close_approach_date_full": "2005-Mar-12 23:26",
            "epoch_date_close_approach": 1110669960000,
            "relative_velocity": {
                "kilometers_per_second": "25.2853413409",
                "kilometers_per_hour": "91027.2288272591",
                "miles_per_hour": "56560.7800454711"
            },
            "miss_distance": {
                "astronomical": "0.1958141069",
                "lunar": "76.1716875841",
                "kilometers": "29293373.308192303",
                "miles": "18202058.1330596614"
            },
            "orbiting_body": "Earth"
        }
    ],
    "orbital_data": {
        "orbit_id": "8",
        "orbit_determination_date": "2017-04-06 09:11:21",
        "first_observation_date": "2005-03-08",
        "last_observation_date": "2005-04-04",
        "data_arc_in_days": 27,
        "observations_used": 31,
        "orbit_uncertainty": "8",
        "minimum_orbit_intersection": ".135787",
        "jupiter_tisserand_invariant": "3.681",
        "epoch_osculation": "2453442.5",
        "eccentricity": ".366292294154775",
        "semi_major_axis": "1.777455188966254",
        "inclination": "46.12749938936364",
        "ascending_node_longitude": "175.7242947007416",
        "orbital_period": "865.5584844792626",
        "perihelion_distance": "1.126387050042496",
        "perihelion_argument": "10.09762740680655",
        "aphelion_distance": "2.428523327890013",
        "perihelion_time": "2453447.675674162622",
        "mean_anomaly": "357.8473520484698",
        "mean_motion": ".4159164359836219",
        "equinox": "J2000",
        "orbit_class": {
            "orbit_class_type": "AMO",
            "orbit_class_description": "Near-Earth asteroid orbits similar to that of 1221 Amor",
            "orbit_class_range": "1.017 AU < q (perihelion) < 1.3 AU"
        }
    },
    "is_sentry_object": false
}